{
    "links": {
        "self": "http://www.neowsapp.com/rest/v1/neo/54016305?api_key=iIulBulltgU6a56xZRHN4H3l9WmuAYTsLGpBGhQ2"
    },
    "id": "54016305",
    "neo_reference_id": "54016305",
    "name": "(2020 FU2)",
    "designation": "2020 FU2",
    "nasa_jpl_url": "http://ssd.jpl.nasa.gov/sbdb.cgi?sstr=54016305",
    "absolute_magnitude_h": 28.593,
    "estimated_diameter": {
        "kilometers": {
            "estimated_diameter_min": 0.0050810676,
            "estimated_diameter_max": 0.0113616126
        },
        "meters": {
            "estimated_diameter_min": 5.081067643,
            "estimated_diameter_max": 11.3616126481
        },
        "miles": {
            "estimated_diameter_min": 0.0031572281,
            "estimated_diameter_max": 0.0070597766
        },
        "feet": {
            "estimated_diameter_min": 16.670169966,
            "estimated_diameter_max": 37.2756332404
        }
    },
    "is_potentially_hazardous_asteroid": false,
    "close_approach_data": [
        {
            "close_approach_date": "2020-03-19",
            "close_approach_date_full": "2020-Mar-19 07:21",
            "epoch_date_close_approach": 1584602460000,
            "relative_velocity": {
                "kilometers_per_second": "13.8649823711",
                "kilometers_per_hour": "49913.9365357958",
                "miles_per_hour": "31014.5790658116"
            },
            "miss_distance": {
                "astronomical": "0.0048194867",
                "lunar": "1.8747803263",
                "kilometers": "720984.944813329",
                "miles": "447999.2707047802"
            },
            "orbiting_body": "Moon"
        },
        {
            "close_approach_date": "2020-03-19",
            "close_approach_date_full": "2020-Mar-19 09:30",
            "epoch_date_close_approach": 1584610200000,
            "relative_velocity": {
                "kilometers_per_second": "12.9485266364",
                "kilometers_per_hour": "46614.6958911988",
                "miles_per_hour": "28964.5592330618"
            },
            "miss_distance": {
                "astronomical": "0.0036591918",
                "lunar": "1.4234256102",
                "kilometers": "547407.299201466",
                "miles": "340143.1230775908"
            },
            "orbiting_body": "Earth"
        }
    ],
    "orbital_data": {
        "orbit_id": "2",
        "orbit_determination_date": "2020-03-27 05:58:56",
        "first_observation_date": "2020-03-21",
        "last_observation_date": "2020-03-24",
        "data_arc_in_days": 3,
        "observations_used": 14,
        "orbit_uncertainty": "8",
        "minimum_orbit_intersection": ".00366631",
        "jupiter_tisserand_invariant": "3.698",
        "epoch_osculation": "2458932.5",
        "eccentricity": ".5659457564144134",
        "semi_major_axis": "1.92773284454768",
        "inclination": "5.674429931850774",
        "ascending_node_longitude": "1.022978344095537",
        "orbital_period": "977.6168924337233",
        "perihelion_distance": ".8367406216752343",
        "perihelion_argument": "121.7174861622742",
        "aphelion_distance": "3.018725067420125",
        "perihelion_time": "2458888.479445852977",
        "mean_anomaly": "16.21023492492755",
        "mean_motion": ".3682424094614403",
        "equinox": "J2000",
        "orbit_class": {
            "orbit_class_type": "APO",
            "orbit_class_description": "Near-Earth asteroid orbits which cross the Earth’s orbit similar to that of 1862 Apollo",
            "orbit_class_range": "a (semi-major axis) > 1.0 AU; q (perihelion) < 1.017 AU"
        }
    },
    "is_sentry_object": false
}